{
    "links": {
        "self": "http://www.neowsapp.com/rest/v1/neo/3560814?api_key=iIulBulltgU6a56xZRHN4H3l9WmuAYTsLGpBGhQ2"
    },
    "id": "3560814",
    "neo_reference_id": "3560814",
    "name": "(2011 FP29)",
    "designation": "2011 FP29",
    "nasa_jpl_url": "http://ssd.jpl.nasa.gov/sbdb.cgi?sstr=3560814",
    "absolute_magnitude_h": 22.0,
    "estimated_diameter": {
        "kilometers": {
            "estimated_diameter_min": 0.1058168859,
            "estimated_diameter_max": 0.2366137501
        },
        "meters": {
            "estimated_diameter_min": 105.8168859331,
            "estimated_diameter_max": 236.6137501138
        },
        "miles": {
            "estimated_diameter_min": 0.0657515442,
            "estimated_diameter_max": 0.1470249225
        },
        "feet": {
            "estimated_diameter_min": 347.1682720448,
            "estimated_diameter_max": 776.2918559233
        }
    },
    "is_potentially_hazardous_asteroid": false,
    "close_approach_data": [
        {
            "close_approach_date": "2010-04-25",
            "close_approach_date_full": "2010-Apr-25 07:17",
            "epoch_date_close_approach": 1272179820000,
            "relative_velocity": {
                "kilometers_per_second": "17.1338911514",
                "kilometers_per_hour": "61682.0081451296",
                "miles_per_hour": "38326.8011166224"
            },
            "miss_distance": {
                "astronomical": "0.2460796997",
                "lunar": "95.7250031833",
                "kilometers": "36812998.925359639",
                "miles": "22874536.8258514582"
            },
            "orbiting_body": "Earth"
        },
        {
            "close_approach_date": "2011-04-07",
            "close_approach_date_full": "2011-Apr-07 03:40",
            "epoch_date_close_approach": 1302147600000,
            "relative_velocity": {
                "kilometers_per_second": "14.800740961",
                "kilometers_per_hour": "53282.6674597501",
                "miles_per_hour": "33107.7774557542"
            },
            "miss_distance": {
                "astronomical": "0.4171748942",
                "lunar": "162.2810338438",
                "kilometers": "62408475.589795354",
                "miles": "38778828.5333257252"
            },
            "orbiting_body": "Earth"
        },
        {
            "close_approach_date": "2011-08-02",
            "close_approach_date_full": "2011-Aug-02 16:10",
            "epoch_date_close_approach": 1312301400000,
            "relative_velocity": {
                "kilometers_per_second": "19.3567051979",
                "kilometers_per_hour": "69684.1387123154",
                "miles_per_hour": "43299.0138571051"
            },
            "miss_distance": {
                "astronomical": "0.495955693",
                "lunar": "192.926764577",
                "kilometers": "74193915.28717391",
                "miles": "46101961.183103558"
            },
            "orbiting_body": "Earth"
        },
        {
            "close_approach_date": "2012-09-23",
            "close_approach_date_full": "2012-Sep-23 07:08",
            "epoch_date_close_approach": 1348384080000,
            "relative_velocity": {
                "kilometers_per_second": "22.5339717594",
                "kilometers_per_hour": "81122.2983338512",
                "miles_per_hour": "50406.2414286088"
            },
            "miss_distance": {
                "astronomical": "0.4123893374",
                "lunar": "160.4194522486",
                "kilometers": "61692566.485751338",
                "miles": "38333983.2438229444"
            },
            "orbiting_body": "Earth"
        }
    ],
    "orbital_data": {
        "orbit_id": "7",
        "orbit_determination_date": "2019-07-17 06:09:32",
        "first_observation_date": "2011-03-29",
        "last_observation_date": "2011-04-01",
        "data_arc_in_days": 3,
        "observations_used": 21,
        "orbit_uncertainty": "9",
        "minimum_orbit_intersection": ".245882",
        "jupiter_tisserand_invariant": "5.667",
        "epoch_osculation": "2455652.5",
        "eccentricity": ".4461168180137865",
        "semi_major_axis": "1.05446141641794",
        "inclination": "24.72622100416545",
        "ascending_node_longitude": "9.08339087556566",
        "orbital_period": "395.4981593665972",
        "perihelion_distance": ".5840484446072586",
        "perihelion_argument": "332.7800155786166",
        "aphelion_distance": "1.524874388228622",
        "perihelion_time": "2455788.503895375072",
        "mean_anomaly": "236.2032106206533",
        "mean_motion": ".9102444384989083",
        "equinox": "J2000",
        "orbit_class": {
            "orbit_class_type": "APO",
            "orbit_class_description": "Near-Earth asteroid orbits which cross the Earth’s orbit similar to that of 1862 Apollo",
            "orbit_class_range": "a (semi-major axis) > 1.0 AU; q (perihelion) < 1.017 AU"
        }
    },
    "is_sentry_object": false
}